network_code,receiver_code,receiver_type,receiver_latitude,receiver_longitude,receiver_elevation_m,p_arrival_sample,p_status,p_weight,p_travel_sec,s_arrival_sample,s_status,s_weight,source_id,source_origin_time,source_origin_uncertainty_sec,source_latitude,source_longitude,source_error_sec,source_gap_deg,source_horizontal_uncertainty_km,source_depth_km,source_depth_uncertainty_km,source_magnitude,source_magnitude_type,source_magnitude_author,source_mechanism_strike_dip_rake,source_distance_deg,source_distance_km,back_azimuth_deg,snr_db,coda_end_sample,trace_start_time,trace_category,trace_name
TA,109C,BH,32.8889,-117.1051,150,600,manual,0.5,16.87999916,1763,manual,0.5,8860238,56:42.7,0.24,32.7077,-116.0446,0.899,37.593,2.9542,9.2,None,4.3,mb,None,None,0.91,101.34,281.7,[65.         65.5        61.40000153],[[5508.]],56:53.6,earthquake_local,109C.TA_20061103155652_EV
TA,109C,BH,32.8889,-117.1051,150,900,manual,0.5,17.28000069,2086,manual,0.5,9443190,32:14.3,0.25,32.7063,-116.0241,0.9173,43.783,2.6112,11.5,None,3.8,ml,None,None,0.93,103.26,281.6,[54.09999847 54.90000153 45.5       ],[[3152.]],32:22.5,earthquake_local,109C.TA_20061114133221_EV
TA,109C,BH,32.8889,-117.1051,150,900,manual,0.5,17.87000084,2184,manual,0.5,9084320,10:55.0,0.3,32.8297,-115.9531,0.9905,45.342,2.948,2.1,None,4.1,ml,None,None,0.97,108.03,273.8,[55.         56.09999847 43.20000076],[[3199.]],11:03.9,earthquake_local,109C.TA_20061129211102_EV
TA,109C,BH,32.8889,-117.1051,150,900,manual,0.5,16.79999924,2041,manual,0.5,11499016,33:42.8,0.24,33.2446,-116.1336,1.115,27.81,2.2574,8.38,None,4.2,ml,None,None,0.89,98.93,246.8,[65.         68.19999695 58.70000076],[[2866.]],33:50.6,earthquake_local,109C.TA_20070209033349_EV
TA,109C,BH,32.8889,-117.1051,150,900,manual,0.5,5.25,1278,manual,0.5,12816661,53:07.6,0.32,32.6931,-117.4375,1.1545,140.005,2.9323,10,None,3.4,ml,None,None,0.34,37.96,55,[65.40000153 65.09999847 58.09999847],[[2207.]],53:03.8,earthquake_local,109C.TA_20070830095302_EV
